NORAD_CAT_ID,OBJECT_NAME,OBJECT_TYPE,EPOCH,MEAN_MOTION,ECCENTRICITY,INCLINATION,RA_OF_ASC_NODE,ARG_OF_PERICENTER,MEAN_ANOMALY,BSTAR,MEAN_MOTION_DOT,MEAN_MOTION_DDOT,TLE_LINE0,TLE_LINE1,TLE_LINE2,SEMIMAJOR_AXIS,PERIOD,APOGEE,PERIGEE,DECAYED
52682.0,STARLINK-4017,PAYLOAD,2022-12-22 10:39:48,15.08844633,0.0002716,53.2187,11.0176,27.7997,332.314,7.1593e-05,8.51e-06,0.0,0 STARLINK-4017,1 52682U 22053AC  22356.44430843  .00000851  00000-0  71593-4 0  9996,2 52682  53.2187  11.0176 0002716  27.7997 332.3140 15.08844633 34032,6917.866,95.437,541.61,537.852,0.0
52682.0,STARLINK-4017,PAYLOAD,2022-12-22 18:36:44,15.08841659,0.0002809,53.2183,9.5311,25.7425,334.3707,0.00025096,3.708e-05,0.0,0 STARLINK-4017,1 52682U 22053AC  22356.77551128  .00003708  00000-0  25096-3 0  9992,2 52682  53.2183   9.5311 0002809  25.7425 334.3707 15.08841659 34089,6917.875,95.437,541.684,537.797,0.0
52682.0,STARLINK-4017,PAYLOAD,2022-12-23 00:58:16,15.08840845,0.000275,53.2184,8.3414,25.8083,334.3045,0.0003708,5.618e-05,0.0,0 STARLINK-4017,1 52682U 22053AC  22357.04047435  .00005618  00000-0  37080-3 0  9992,2 52682  53.2184   8.3414 0002750  25.8083 334.3045 15.08840845 33717,6917.878000000002,95.438,541.645,537.84,0.0
52682.0,STARLINK-4017,PAYLOAD,2022-12-23 08:55:13,15.08832165,0.0002896,53.2179,6.8553,23.8126,336.3,0.00015362,2.157e-05,0.0,0 STARLINK-4017,1 52682U 22053AC  22357.37167863  .00002157  00000-0  15362-3 0  9990,2 52682  53.2179   6.8553 0002896  23.8126 336.3000 15.08832165 33769,6917.904,95.438,541.773,537.766,0.0
52682.0,STARLINK-4017,PAYLOAD,2022-12-23 12:05:59,15.08833806,0.0002846,53.2182,6.2602,25.6107,334.5025,0.00016773,2.382e-05,0.0,0 STARLINK-4017,1 52682U 22053AC  22357.50415893  .00002382  00000-0  16773-3 0  9991,2 52682  53.2182   6.2602 0002846  25.6107 334.5025 15.08833806 34194,6917.899,95.438,541.7330000000002,537.795,0.0
52682.0,STARLINK-4017,PAYLOAD,2022-12-24 03:59:50,15.08851444,0.0002886,53.2183,3.2865,27.951,332.1637,0.00042767,6.527e-05,0.0,0 STARLINK-4017,1 52682U 22053AC  22358.16655373  .00006527  00000-0  42767-3 0  9990,2 52682  53.2183   3.2865 0002886  27.9510 332.1637 15.08851444 33886,6917.845,95.437,541.707,537.714,0.0
52682.0,STARLINK-4017,PAYLOAD,2022-12-24 10:21:22,15.08852916,0.0002911,53.2183,2.0971,27.2663,332.8482,0.00052661,8.106e-05,0.0,0 STARLINK-4017,1 52682U 22053AC  22358.43151315  .00008106  00000-0  52661-3 0  9996,2 52682  53.2183   2.0971 0002911  27.2663 332.8482 15.08852916 34333,6917.840999999999,95.437,541.72,537.692,0.0
52682.0,STARLINK-4017,PAYLOAD,2022-12-25 00:39:50,15.08855193,0.0003018,53.2188,359.4213,27.6548,332.4605,0.00040344,6.141e-05,0.0,0 STARLINK-4017,1 52682U 22053AC  22359.02767094  .00006141  00000-0  40344-3 0  9991,2 52682  53.2188 359.4213 0003018  27.6548 332.4605 15.08855193 34019,6917.834,95.437,541.7869999999998,537.611,0.0
52682.0,STARLINK-4017,PAYLOAD,2022-12-25 10:12:09,15.08845099,0.0002983,53.2186,357.6368,25.2862,334.8275,8.6809e-05,1.093e-05,0.0,0 STARLINK-4017,1 52682U 22053AC  22359.42511139  .00001093  00000-0  86809-4 0  9990,2 52682  53.2186 357.6368 0002983  25.2862 334.8275 15.08845099 34070,6917.865,95.437,541.793,537.6659999999998,0.0
52682.0,STARLINK-4017,PAYLOAD,2022-12-25 16:33:42,15.08830005,0.0002993,53.2188,356.4476,26.861,333.2537,-0.00014922,-2.662e-05,0.0,0 STARLINK-4017,1 52682U 22053AC  22359.69007822 -.00002662  00000-0 -14922-3 0  9999,2 52682  53.2188 356.4476 0002993  26.8610 333.2537 15.08830005 34118,6917.911,95.438,541.846,537.705,0.0
52682.0,STARLINK-4017,PAYLOAD,2022-12-26 06:52:10,15.08844524,0.0003018,53.2188,353.771,28.5153,331.6004,3.7925e-05,3.15e-06,0.0,0 STARLINK-4017,1 52682U 22053AC  22360.28623353  .00000315  00000-0  37925-4 0  9999,2 52682  53.2188 353.7710 0003018  28.5153 331.6004 15.08844524 34201,6917.8669999999975,95.437,541.819,537.644,0.0
52682.0,STARLINK-4017,PAYLOAD,2022-12-27 00:21:25,15.08840426,0.0002973,53.2188,350.5002,28.6688,331.4467,0.00017437,2.488e-05,0.0,0 STARLINK-4017,1 52682U 22053AC  22361.01487689  .00002488  00000-0  17437-3 0  9999,2 52682  53.2188 350.5002 0002973  28.6688 331.4467 15.08840426 34313,6917.879,95.438,541.8009999999998,537.687,0.0
52682.0,STARLINK-4017,PAYLOAD,2022-12-27 08:18:20,15.08846918,0.0003066,53.2188,349.0134,28.8876,331.2286,0.00025731,3.81e-05,0.0,0 STARLINK-4017,1 52682U 22053AC  22361.34607311  .00003810  00000-0  25731-3 0  9997,2 52682  53.2188 349.0134 0003066  28.8876 331.2286 15.08846918 34776,6917.859,95.437,541.845,537.6030000000002,0.0
52682.0,STARLINK-4017,PAYLOAD,2022-12-27 16:15:15,15.08864068,0.000304,53.2184,347.5268,29.1993,330.9168,0.00053189,8.193e-05,0.0,0 STARLINK-4017,1 52682U 22053AC  22361.67726537  .00008193  00000-0  53189-3 0  9992,2 52682  53.2184 347.5268 0003040  29.1993 330.9168 15.08864068 34411,6917.807,95.436,541.775,537.569,0.0
52682.0,STARLINK-4017,PAYLOAD,2022-12-27 22:36:47,15.08869453,0.0003043,53.2185,346.3374,29.7898,330.3267,0.00060816,9.412e-05,0.0,0 STARLINK-4017,1 52682U 22053AC  22361.94222163  .00009412  00000-0  60816-3 0  9998,2 52682  53.2185 346.3374 0003043  29.7898 330.3267 15.08869453 34866,6917.79,95.436,541.76,537.55,0.0
52682.0,STARLINK-4017,PAYLOAD,2022-12-29 04:49:08,15.08832243,0.0003017,53.2187,340.6881,23.6639,336.4492,-0.00026022,-4.427e-05,0.0,0 STARLINK-4017,1 52682U 22053AC  22363.20078822 -.00004427  00000-0 -26022-3 0  9994,2 52682  53.2187 340.6881 0003017  23.6639 336.4492 15.08832243 34645,6917.904,95.438,541.856,537.682,0.0
52682.0,STARLINK-4017,PAYLOAD,2022-12-29 07:59:54,15.08823328,0.0002803,53.2187,340.0931,26.3497,333.7637,-0.00040901,-6.789e-05,0.0,0 STARLINK-4017,1 52682U 22053AC  22363.33327243 -.00006789  00000-0 -40901-3 0  9997,2 52682  53.2187 340.0931 0002803  26.3497 333.7637 15.08823328 35072,6917.931,95.439,541.735,537.857,0.0
52682.0,STARLINK-4017,PAYLOAD,2022-12-29 15:56:50,15.08825029,0.0002833999999999,53.219,338.6062,26.8164,333.2974,-0.0002917,-4.926e-05,0.0,0 STARLINK-4017,1 52682U 22053AC  22363.66447886 -.00004926  00000-0 -29170-3 0  9995,2 52682  53.2190 338.6062 0002834  26.8164 333.2974 15.08825029 34713,6917.926,95.439,541.752,537.831,0.0
52682.0,STARLINK-4017,PAYLOAD,2022-12-30 03:04:32,15.08838694,0.000285,53.2197,336.5244,28.9404,331.1746,-4.5677e-05,-1.015e-05,0.0,0 STARLINK-4017,1 52682U 22053AC  22364.12815909 -.00001015  00000-0 -45677-4 0  9999,2 52682  53.2197 336.5244 0002850  28.9404 331.1746 15.08838694 34780,6917.884,95.438,541.721,537.778,0.0
52682.0,STARLINK-4017,PAYLOAD,2022-12-30 07:50:42,15.08837418,0.0002883,53.2185,335.6321,29.6306,330.4849,4.7542e-05,4.68e-06,0.0,0 STARLINK-4017,1 52682U 22053AC  22364.32687900  .00000468  00000-0  47542-4 0  9991,2 52682  53.2185 335.6321 0002883  29.6306 330.4849 15.08837418 35227,6917.888000000001,95.438,541.748,537.759,0.0
52682.0,STARLINK-4017,PAYLOAD,2022-12-30 15:47:37,15.08849791,0.0002846,53.2188,334.146,29.2676,330.8475,0.00039357,5.983e-05,0.0,0 STARLINK-4017,1 52682U 22053AC  22364.65807448  .00005983  00000-0  39357-3 0  9999,2 52682  53.2188 334.1460 0002846  29.2676 330.8475 15.08849791 34868,6917.85,95.437,541.684,537.747,0.0
52682.0,STARLINK-4017,PAYLOAD,2022-12-31 01:19:56,15.0887733,0.0002894,53.218,332.3613,30.6346,329.4815,0.00133,0.00020965,0.0,0 STARLINK-4017,1 52682U 22053AC  22365.05551266  .00020965  00000-0  13300-2 0  9994,2 52682  53.2180 332.3613 0002894  30.6346 329.4815 15.08877330 34922,6917.766,95.435,541.633,537.629,0.0
52682.0,STARLINK-4017,PAYLOAD,2022-12-31 04:30:42,15.08882237,0.0002991,53.2182,331.7668,30.8066,329.3101,0.0013344,0.00021038,0.0,0 STARLINK-4017,1 52682U 22053AC  22365.18799090  .00021038  00000-0  13344-2 0  9997,2 52682  53.2182 331.7668 0002991  30.8066 329.3101 15.08882237 35353,6917.751,95.435,541.685,537.547,0.0
52682.0,STARLINK-4017,PAYLOAD,2023-01-01 04:21:28,15.08827008,0.0002728999999999,53.2183,327.3064,24.5405,335.5717,0.0011193,0.00017565,0.0,0 STARLINK-4017,1 52682U 22053AC  23001.18158487  .00017565  00000-0  11193-2 0  9994,2 52682  53.2183 327.3064 0002729  24.5405 335.5717 15.08827008 35099,6917.92,95.438,541.673,537.8969999999998,0.0
52682.0,STARLINK-4017,PAYLOAD,2023-01-01 09:07:38,15.0883625,0.0002804,53.2184,326.4147,23.5297,336.5823,0.00036498,5.525e-05,0.0,0 STARLINK-4017,1 52682U 22053AC  23001.38031075  .00005525  00000-0  36498-3 0  9998,2 52682  53.2184 326.4147 0002804  23.5297 336.5823 15.08836250 35531,6917.892,95.438,541.697,537.817,0.0
52682.0,STARLINK-4017,PAYLOAD,2023-01-01 21:50:44,15.0880947,0.0002819999999999,53.2182,324.0365,23.9519,336.1604,0.00085801,0.00013382,0.0,0 STARLINK-4017,1 52682U 22053AC  23001.91024223  .00013382  00000-0  85801-3 0  9996,2 52682  53.2182 324.0365 0002820  23.9519 336.1604 15.08809470 35205,6917.974,95.439,541.79,537.888,0.0
52682.0,STARLINK-4017,PAYLOAD,2023-01-02 13:44:36,15.08834437,0.0002798,53.2192,321.064,28.6671,331.4475,0.00078086,0.0001216,0.0,0 STARLINK-4017,1 52682U 22053AC  23002.57264530  .00012160  00000-0  78086-3 0  9996,2 52682  53.2192 321.0640 0002798  28.6671 331.4475 15.08834437 35715,6917.897,95.438,541.698,537.827,0.0
52682.0,STARLINK-4017,PAYLOAD,2023-01-03 07:13:50,15.08853164,0.000273,53.2188,317.7920000000001,28.2786,331.8353,0.00075235,0.0001171,0.0,0 STARLINK-4017,1 52682U 22053AC  23003.30128364  .00011710  00000-0  75235-3 0  9995,2 52682  53.2188 317.7920 0002730  28.2786 331.8353 15.08853164 35821,6917.84,95.437,541.594,537.817,0.0
52682.0,STARLINK-4017,PAYLOAD,2023-01-03 13:35:23,15.08848611,0.0002869,53.2184,316.6016,23.3978,336.7144,0.00049708,7.634e-05,0.0,0 STARLINK-4017,1 52682U 22053AC  23003.56624367  .00007634  00000-0  49708-3 0  9993,2 52682  53.2184 316.6016 0002869  23.3978 336.7144 15.08848611 35455,6917.854,95.437,541.7040000000002,537.734,0.0
